{
  "name": "LEO_00005",
  "description": "Low Earth Orbit - high eccentricity (e=0.186)",
  "tle_line1": "1 00005U 58002B   00179.78495062  .00000023  00000-0  28098-4 0  4753",
  "tle_line2": "2 00005  34.2682 348.7242 1859667 331.7664  19.3264 10.82419157413667",
  "num_points": 7,
  "source": "Vallado SGP4 Verification Dataset"
}